{
  "links" : {
    "next" : "https://api.nasa.gov/neo/rest/v1/feed?start_date=2004-09-09&end_date=2004-09-09&detailed=true&api_key=t0TVs3DtDT2H8Oy2Zy8m2eVrNsAVKAexjcZXUckd",
    "prev" : "https://api.nasa.gov/neo/rest/v1/feed?start_date=2004-09-07&end_date=2004-09-07&detailed=true&api_key=t0TVs3DtDT2H8Oy2Zy8m2eVrNsAVKAexjcZXUckd",
    "self" : "https://api.nasa.gov/neo/rest/v1/feed?start_date=2004-09-08&end_date=2004-09-08&detailed=true&api_key=t0TVs3DtDT2H8Oy2Zy8m2eVrNsAVKAexjcZXUckd"
  },
  "element_count" : 4,
  "near_earth_objects" : {
    "2004-09-08" : [ {
      "links" : {
        "self" : "https://api.nasa.gov/neo/rest/v1/neo/3252345?api_key=t0TVs3DtDT2H8Oy2Zy8m2eVrNsAVKAexjcZXUckd"
      },
      "neo_reference_id" : "3252345",
      "name" : "(2004 RV164)",
      "nasa_jpl_url" : "http://ssd.jpl.nasa.gov/sbdb.cgi?sstr=3252345",
      "absolute_magnitude_h" : 24.3,
      "estimated_diameter" : {
        "kilometers" : {
          "estimated_diameter_min" : 0.0366906138,
          "estimated_diameter_max" : 0.0820427065
        },
        "meters" : {
          "estimated_diameter_min" : 36.6906137531,
          "estimated_diameter_max" : 82.0427064882
        },
        "miles" : {
          "estimated_diameter_min" : 0.0227984834,
          "estimated_diameter_max" : 0.0509789586
        },
        "feet" : {
          "estimated_diameter_min" : 120.3760332259,
          "estimated_diameter_max" : 269.1689931548
        }
      },
      "is_potentially_hazardous_asteroid" : false,
      "close_approach_data" : [ {
        "close_approach_date" : "2004-09-08",
        "epoch_date_close_approach" : 1094626800000,
        "relative_velocity" : {
          "kilometers_per_second" : "8.654126746",
          "kilometers_per_hour" : "31154.8562855442",
          "miles_per_hour" : "19358.4161180928"
        },
        "miss_distance" : {
          "astronomical" : "0.0288408997",
          "lunar" : "11.2191095352",
          "kilometers" : "4314537",
          "miles" : "2680929"
        },
        "orbiting_body" : "Earth"
      } ],
      "orbital_data" : {
        "orbit_id" : "13",
        "orbit_determination_date" : "2017-04-06 09:12:18",
        "orbit_uncertainty" : "7",
        "minimum_orbit_intersection" : ".00446094",
        "jupiter_tisserand_invariant" : "3.274",
        "epoch_osculation" : "2458000.5",
        "eccentricity" : ".5803054327644506",
        "semi_major_axis" : "2.399263477603051",
        "inclination" : "2.564889292949493",
        "ascending_node_longitude" : "326.2016338745593",
        "orbital_period" : "1357.423431173781",
        "perihelion_distance" : "1.006957846916672",
        "perihelion_argument" : "2.740225970567921",
        "aphelion_distance" : "3.79156910828943",
        "perihelion_time" : "2458678.393925857486",
        "mean_anomaly" : "180.2168846476527",
        "mean_motion" : ".2652083290537453",
        "equinox" : "J2000"
      }
    }, {
      "links" : {
        "self" : "https://api.nasa.gov/neo/rest/v1/neo/2038086?api_key=t0TVs3DtDT2H8Oy2Zy8m2eVrNsAVKAexjcZXUckd"
      },
      "neo_reference_id" : "2038086",
      "name" : "38086 Beowulf (1999 JB)",
      "nasa_jpl_url" : "http://ssd.jpl.nasa.gov/sbdb.cgi?sstr=2038086",
      "absolute_magnitude_h" : 17.4,
      "estimated_diameter" : {
        "kilometers" : {
          "estimated_diameter_min" : 0.8801465209,
          "estimated_diameter_max" : 1.9680674509
        },
        "meters" : {
          "estimated_diameter_min" : 880.1465209007,
          "estimated_diameter_max" : 1968.067450894
        },
        "miles" : {
          "estimated_diameter_min" : 0.5468975238,
          "estimated_diameter_max" : 1.22290004
        },
        "feet" : {
          "estimated_diameter_min" : 2887.6199116319,
          "estimated_diameter_max" : 6456.914415591
        }
      },
      "is_potentially_hazardous_asteroid" : false,
      "close_approach_data" : [ {
        "close_approach_date" : "2004-09-08",
        "epoch_date_close_approach" : 1094626800000,
        "relative_velocity" : {
          "kilometers_per_second" : "23.6220353629",
          "kilometers_per_hour" : "85039.3273064432",
          "miles_per_hour" : "52840.130903273"
        },
        "miss_distance" : {
          "astronomical" : "0.3915293407",
          "lunar" : "152.3049163818",
          "kilometers" : "58571956",
          "miles" : "36394928"
        },
        "orbiting_body" : "Earth"
      } ],
      "orbital_data" : {
        "orbit_id" : "105",
        "orbit_determination_date" : "2017-04-06 09:29:12",
        "orbit_uncertainty" : "0",
        "minimum_orbit_intersection" : ".384703",
        "jupiter_tisserand_invariant" : "4.452",
        "epoch_osculation" : "2458000.5",
        "eccentricity" : ".5662124642994516",
        "semi_major_axis" : "1.420270964517033",
        "inclination" : "23.67194522001453",
        "ascending_node_longitude" : "165.3453245890904",
        "orbital_period" : "618.2373512764282",
        "perihelion_distance" : ".6160958417248847",
        "perihelion_argument" : "178.939358095199",
        "aphelion_distance" : "2.224446087309181",
        "perihelion_time" : "2458201.986627621848",
        "mean_anomaly" : "242.6742095182259",
        "mean_motion" : ".5823006313946174",
        "equinox" : "J2000"
      }
    }, {
      "links" : {
        "self" : "https://api.nasa.gov/neo/rest/v1/neo/3514959?api_key=t0TVs3DtDT2H8Oy2Zy8m2eVrNsAVKAexjcZXUckd"
      },
      "neo_reference_id" : "3514959",
      "name" : "(2010 GA7)",
      "nasa_jpl_url" : "http://ssd.jpl.nasa.gov/sbdb.cgi?sstr=3514959",
      "absolute_magnitude_h" : 21.2,
      "estimated_diameter" : {
        "kilometers" : {
          "estimated_diameter_min" : 0.1529519353,
          "estimated_diameter_max" : 0.3420109247
        },
        "meters" : {
          "estimated_diameter_min" : 152.9519353442,
          "estimated_diameter_max" : 342.0109247198
        },
        "miles" : {
          "estimated_diameter_min" : 0.095039897,
          "estimated_diameter_max" : 0.2125156703
        },
        "feet" : {
          "estimated_diameter_min" : 501.8108275547,
          "estimated_diameter_max" : 1122.0831222578
        }
      },
      "is_potentially_hazardous_asteroid" : false,
      "close_approach_data" : [ {
        "close_approach_date" : "2004-09-08",
        "epoch_date_close_approach" : 1094626800000,
        "relative_velocity" : {
          "kilometers_per_second" : "22.5388639413",
          "kilometers_per_hour" : "81139.9101886404",
          "miles_per_hour" : "50417.1847502694"
        },
        "miss_distance" : {
          "astronomical" : "0.4326577369",
          "lunar" : "168.3038635254",
          "kilometers" : "64724680",
          "miles" : "40218052"
        },
        "orbiting_body" : "Earth"
      } ],
      "orbital_data" : {
        "orbit_id" : "27",
        "orbit_determination_date" : "2017-04-30 06:17:20",
        "orbit_uncertainty" : "0",
        "minimum_orbit_intersection" : ".163813",
        "jupiter_tisserand_invariant" : "6.370",
        "epoch_osculation" : "2458000.5",
        "eccentricity" : ".3891325990172225",
        "semi_major_axis" : ".9126006979653501",
        "inclination" : "30.00769774089614",
        "ascending_node_longitude" : "21.52832410808652",
        "orbital_period" : "318.4341389431929",
        "perihelion_distance" : ".5574780165011621",
        "perihelion_argument" : "25.48660350512651",
        "aphelion_distance" : "1.267723379429538",
        "perihelion_time" : "2458057.593664628115",
        "mean_anomaly" : "295.4537822661405",
        "mean_motion" : "1.130532050347222",
        "equinox" : "J2000"
      }
    }, {
      "links" : {
        "self" : "https://api.nasa.gov/neo/rest/v1/neo/3253151?api_key=t0TVs3DtDT2H8Oy2Zy8m2eVrNsAVKAexjcZXUckd"
      },
      "neo_reference_id" : "3253151",
      "name" : "(2004 SS)",
      "nasa_jpl_url" : "http://ssd.jpl.nasa.gov/sbdb.cgi?sstr=3253151",
      "absolute_magnitude_h" : 22.0,
      "estimated_diameter" : {
        "kilometers" : {
          "estimated_diameter_min" : 0.1058168859,
          "estimated_diameter_max" : 0.2366137501
        },
        "meters" : {
          "estimated_diameter_min" : 105.8168859331,
          "estimated_diameter_max" : 236.6137501138
        },
        "miles" : {
          "estimated_diameter_min" : 0.0657515442,
          "estimated_diameter_max" : 0.1470249225
        },
        "feet" : {
          "estimated_diameter_min" : 347.1682720448,
          "estimated_diameter_max" : 776.2918559233
        }
      },
      "is_potentially_hazardous_asteroid" : true,
      "close_approach_data" : [ {
        "close_approach_date" : "2004-09-08",
        "epoch_date_close_approach" : 1094626800000,
        "relative_velocity" : {
          "kilometers_per_second" : "7.6556388526",
          "kilometers_per_hour" : "27560.2998694301",
          "miles_per_hour" : "17124.8985494245"
        },
        "miss_distance" : {
          "astronomical" : "0.0490898128",
          "lunar" : "19.0959358215",
          "kilometers" : "7343731.5",
          "miles" : "4563183"
        },
        "orbiting_body" : "Earth"
      } ],
      "orbital_data" : {
        "orbit_id" : "20",
        "orbit_determination_date" : "2017-09-27 06:50:15",
        "orbit_uncertainty" : "0",
        "minimum_orbit_intersection" : ".0325955",
        "jupiter_tisserand_invariant" : "3.466",
        "epoch_osculation" : "2458000.5",
        "eccentricity" : ".5283595862727615",
        "semi_major_axis" : "2.195028809385952",
        "inclination" : "6.521730564412179",
        "ascending_node_longitude" : "1.418598577559823",
        "orbital_period" : "1187.842237289112",
        "perihelion_distance" : "1.035264295801998",
        "perihelion_argument" : "353.2542895118109",
        "aphelion_distance" : "3.354793322969906",
        "perihelion_time" : "2458016.391436235814",
        "mean_anomaly" : "355.1837736819753",
        "mean_motion" : ".3030705498581952",
        "equinox" : "J2000"
      }
    } ]
  }
}